ZYTX 221000Z 17005MPS 150V230 9999 OVC033 20/14 Q1008 NOSIG
ZYTX 220930Z 17004MPS 9999 OVC033 20/14 Q1008 NOSIG
ZYTX 220900Z 18005MPS 9999 OVC033 21/14 Q1008 NOSIG
ZYTX 220830Z 19006MPS 160V220 9999 OVC033 22/15 Q1008 NOSIG
ZYTX 220800Z 19006MPS 150V220 9999 OVC033 23/15 Q1008 NOSIG
ZYTX 220730Z 20006MPS 9999 OVC033 23/15 Q1008 NOSIG
ZYTX 220700Z 20007MPS 9999 OVC033 24/15 Q1008 NOSIG
ZYTX 220630Z 20008MPS 170V230 9999 BKN033 24/15 Q1008 NOSIG
ZYTX 220600Z 20009MPS 9999 SCT033 25/15 Q1008 NOSIG
ZYTX 220530Z 20008G13MPS 160V220 9999 BKN033 24/16 Q1008 NOSIG
ZYTX 220500Z 20008MPS 170V230 9999 BKN033 24/15 Q1009 NOSIG
ZYTX 220430Z 20008MPS 170V230 9999 BKN033 25/16 Q1009 NOSIG
ZYTX 220400Z 21008MPS 180V240 9999 BKN033 24/15 Q1009 NOSIG
ZYTX 220330Z 20008MPS 9999 BKN033 24/15 Q1010 NOSIG
ZYTX 220300Z 20008G14MPS 9999 BKN033 23/15 Q1010 NOSIG
ZYTX 220230Z 19007MPS 170V230 9999 BKN033 23/15 Q1010 NOSIG
ZYTX 220200Z 20008MPS 9999 OVC033 22/14 Q1011 NOSIG
ZYTX 220130Z 20007MPS 9999 OVC033 22/14 Q1011 NOSIG
ZYTX 220100Z 20007MPS 170V230 9999 OVC030 21/14 Q1011 NOSIG
ZYTX 220030Z 19007MPS 160V220 9999 OVC030 21/13 Q1011 NOSIG
ZYTX 220000Z 19006MPS 9999 OVC030 20/12 Q1012 NOSIG
ZYTX 212330Z 19005MPS 9999 BKN030 18/12 Q1012 NOSIG
ZYTX 212300Z 19004MPS 150V230 9999 BKN030 18/11 Q1012 NOSIG
ZYTX 212230Z 19004MPS 160V220 9999 BKN030 17/11 Q1012 NOSIG
